[{"OBJECT_NAME":"STARLINK-4147","OBJECT_ID":"2022-086Q","EPOCH":"2026-03-09T15:05:16.586880","MEAN_MOTION":15.08827019,"ECCENTRICITY":0.0001418,"INCLINATION":53.2181,"RA_OF_ASC_NODE":194.3966,"ARG_OF_PERICENTER":94.1982,"MEAN_ANOMALY":265.9172,"EPHEMERIS_TYPE":0,"CLASSIFICATION_TYPE":"U","NORAD_CAT_ID":53256,"ELEMENT_SET_NO":999,"REV_AT_EPOCH":20105,"BSTAR":0.00013635,"MEAN_MOTION_DOT":1.882e-5,"MEAN_MOTION_DDOT":0},{"OBJECT_NAME":"MINOTAUR 4 R\/B","OBJECT_ID":"2020-046E","EPOCH":"2026-03-09T23:21:28.488960","MEAN_MOTION":15.06543892,"ECCENTRICITY":0.00095926,"INCLINATION":53.9792,"RA_OF_ASC_NODE":306.0413,"ARG_OF_PERICENTER":86.078,"MEAN_ANOMALY":274.1318,"EPHEMERIS_TYPE":0,"CLASSIFICATION_TYPE":"U","NORAD_CAT_ID":45877,"ELEMENT_SET_NO":999,"REV_AT_EPOCH":23396,"BSTAR":0.00016618262,"MEAN_MOTION_DOT":2.204e-5,"MEAN_MOTION_DDOT":0}]
